COSMOS 2361 [-]         
1 25590U 98076A   16138.31464748  .00000026  00000-0  12319-4 0  9995
2 25590  82.9368  48.5527 0030180 264.7932 243.6169 13.72913705871617
COSMOS 2378 [-]         
1 26818U 01023A   16138.59181161  .00000070  00000-0  58621-4 0  9995
2 26818  82.9287  70.4775 0031952 218.1866 141.7028 13.73900292749217
COSMOS 2389 [-]         
1 27436U 02026A   16138.78760171  .00000034  00000-0  19074-4 0  9990
2 27436  82.9525  13.7228 0047784  93.8537 335.6331 13.74899531701139
COSMOS 2398 [-]         
1 27818U 03023A   16139.10252728  .00000032  00000-0  17911-4 0  9999
2 27818  82.9471 327.8997 0032730  98.8834 261.6038 13.72127883648757
COSMOS 2407 [+]         
1 28380U 04028A   16138.21169845  .00000039  00000-0  24062-4 0  9990
2 28380  82.9590 281.4187 0040485 109.4498 251.1041 13.76025077593530
COSMOS 2414 [+]         
1 28521U 05002A   16139.12290703  .00000040  00000-0  20524-4 0  9990
2 28521  82.9472 307.4417 0041274  26.7601 333.5678 13.87568268573495
COSMOS 2429 [-]         
1 32052U 07038A   16138.83740711  .00000026  00000-0  10956-4 0  9993
2 32052  82.9831  39.0114 0039855  76.7242 283.8354 13.74870899435721
COSMOS 2454 [-]         
1 35635U 09039A   16138.73862099  .00000053  00000-0  30158-4 0  9995
2 35635  82.9537 298.2204 0019558 357.5287   2.5784 13.89595238346136
COSMOS 2463 [+]         
1 36519U 10017A   16138.57958656  .00000092  00000-0  85462-4 0  9993
2 36519  82.9608  74.6888 0034901 266.5287  93.1876 13.71399161303240
